CUTE-1 (CO-55)          
1 27844U 03031E   26179.48757997  .00000272  00000+0  13667-3 0  9999
2 27844  98.6736 187.9043 0010221 146.4668 213.7159 14.24342303193286
CUBESAT XI-IV (CO-57)   
1 27848U 03031J   26179.55199356  .00000229  00000+0  11941-3 0  9995
2 27848  98.6768 187.6716 0009707 163.9321 196.2167 14.23626546192990
CUBESAT XI-V            
1 28895U 05043F   26179.40982496  .00001417  00000+0  23033-3 0  9997
2 28895  98.2995 335.2678 0014416 165.2148 194.9483 14.72660646103401
CUTE-1.7+APD II (CO-65) 
1 32785U 08021C   26179.58410836  .00004402  00000+0  27821-3 0  9998
2 32785  97.8271 161.2403 0008594   2.5543 357.5728 15.09555814986916
CANX-2                  
1 32790U 08021H   26179.45311880  .00002944  00000+0  20798-3 0  9994
2 32790  97.8633 159.4505 0010556  16.7528 343.4045 15.05694805986508
SEEDS II (CO-66)        
1 32791U 08021J   26179.49368697  .00016499  00000+0  51759-3 0  9998
2 32791  97.7514 177.9337 0000910 202.7139 157.4063 15.33128545989029
SWISSCUBE               
1 35932U 09051B   26178.97854909  .00000952  00000+0  19747-3 0  9998
2 35932  98.4028  87.0546 0006746 167.8214 192.3151 14.62500860890738
BEESAT-1                
1 35933U 09051C   26179.47277339  .00000788  00000+0  16789-3 0  9991
2 35933  98.3955  87.1691 0004976 177.6025 182.5200 14.61737456890830
ITUPSAT1                
1 35935U 09051E   26179.54206212  .00000711  00000+0  15671-3 0  9998
2 35935  98.4040  86.4193 0006875 194.0038 166.0972 14.60456331890397
TISAT 1                 
1 36799U 10035E   26179.61336630  .00019674  00000+0  63594-3 0  9992
2 36799  98.0708 127.1794 0002958 148.9809 211.1606 15.32132605869459
AEROCUBE 4.5A           
1 38767U 12048K   26179.57806711  .01354997  13385-2  11144-2 0  9999
2 38767  64.6164 344.7234 0018257 260.9644  98.9460 16.13604141374480
STRAND-1                
1 39090U 13009E   26179.47396053  .00000276  00000+0  10710-3 0  9992
2 39090  98.3923 359.4306 0008368 189.1817 170.9218 14.37169747698681
BRITE-AUSTRIA           
1 39091U 13009F   26179.49171952  .00000166  00000+0  70920-4 0  9992
2 39091  98.3997 358.6478 0009714 199.9980 160.0827 14.36546316698675
NEE-01 PEGASO           
1 39151U 13018B   26179.31888920  .00002156  00000+0  20921-3 0  9996
2 39151  98.1232 323.8378 0013556 125.0039 235.2454 14.93713938712362
POPACS 2                
1 39269U 13055E   26179.58294903  .00014068  00000+0  23556-3 0  9990
2 39269  80.9908 131.1465 0416365 157.1832 204.8507 14.91510763664917
POPACS 3                
1 39270U 13055F   26179.52503318  .00010018  00000+0  23618-3 0  9999
2 39270  81.0001 216.8932 0550977  35.4843 328.1718 14.56329614640207
ZACUBE-1 (TSHEPISOSAT)  
1 39417U 13066B   26179.47190809  .00002698  00000+0  21104-3 0  9998
2 39417  97.8045 141.8666 0042379 209.3723 150.5119 15.01247947682426
WNISAT-1                
1 39423U 13066H   26179.39713899  .00001149  00000+0  21700-3 0  9998
2 39423  97.7212 327.7584 0162672 196.1119 163.4874 14.58083874668369
TRITON-1                
1 39427U 13066M   26179.57328463  .00001837  00000+0  22427-3 0  9992
2 39427  97.8243  89.1212 0089283 196.2752 163.5590 14.81741174675774
GOMX-1                  
1 39430U 13066Q   26179.62545140  .00001824  00000+0  27794-3 0  9993
2 39430  97.6480  19.3665 0129661  41.2345 319.8567 14.69498597671598
CUBEBUG-2 (LO-74)       
1 39440U 13066AA  26179.58443150  .00004053  00000+0  37527-3 0  9999
2 39440  97.8905 128.6113 0057204 351.3387   8.6839 14.93851998678697
NEE-02 KRYSAOR          
1 39441U 13066AB  26179.58402266  .00002583  00000+0  28551-3 0  9996
2 39441  97.8895 118.7176 0066966  33.5495 326.9934 14.86669020677897
FUNCUBE-1 (AO-73)       
1 39444U 13066AE  26179.45788280  .00006401  00000+0  39597-3 0  9993
2 39444  97.8276 151.1398 0036835 162.5182 197.7324 15.09621583681360
UWE-3                   
1 39446U 13066AG  26179.44451049  .00003077  00000+0  26620-3 0  9993
2 39446  97.8711 135.5954 0046868 282.8704  76.7284 14.97111918679262
BRITE-CA1 (TORONTO)     
1 40020U 14033L   26179.58832666  .00000861  00000+0  13693-3 0  9995
2 40020  97.9752 308.3069 0077414 239.8801 119.4718 14.72693885643894
DUCHIFAT-1              
1 40021U 14033M   26178.88715589  .00115475  00000+0  10822-2 0  9990
2 40021  98.0448 239.5673 0000744 102.2255 257.9087 15.66842534657425
NANOSATC-BR1            
1 40024U 14033Q   26179.63845997  .00016168  00000+0  52837-3 0  9996
2 40024  98.0715 213.0430 0005155 135.6679 224.4974 15.31817768655733
QB50P1                  
1 40025U 14033R   26179.55127568  .00007122  00000+0  34934-3 0  9993
2 40025  98.0959 191.4949 0009012 175.2402 184.8917 15.18428060654753
QB50P2                  
1 40032U 14033Y   26179.52470961  .00006251  00000+0  33557-3 0  9998
2 40032  98.0748 177.1113 0008972 129.6922 230.5101 15.15301303654385
PERSEUS-M2              
1 40037U 14033AD  26179.63808230  .00000886  00000+0  85404-4 0  9996
2 40037  97.9972 130.4126 0010143 262.7455  97.2612 14.95545520652499
